{"type": "FeatureCollection", "features": [ {"type": "Feature", "properties": {"norad_id": 44804, "name": "CARTOSAT-3", "group": "resource", "lat": 13.02537775450118, "lon": 53.52073895234296, "alt_km": 502.24704790155647, "timestamp": "2025-12-21T18:54:58.151100+00:00", "meta": {"OBJECT_NAME": "CARTOSAT-3", "OBJECT_ID": "2019-081A", "EPOCH": "2025-12-21T14:06:58.734720", "MEAN_MOTION": 15.19222957, "ECCENTRICITY": 0.00138456, "INCLINATION": 97.4572, "RA_OF_ASC_NODE": 55.0597, "ARG_OF_PERICENTER": 55.2266, "MEAN_ANOMALY": 305.027, "EPHEMERIS_TYPE": 0, "CLASSIFICATION_TYPE": "U", "NORAD_CAT_ID": 44804, "ELEMENT_SET_NO": 999, "REV_AT_EPOCH": 33650, "BSTAR": 0.00028741462, "MEAN_MOTION_DOT": 6e-05, "MEAN_MOTION_DDOT": 0}, "tle": {"line1": "1 44804U 19081A   25355.58817980  .00006000  00000+0  28741-3 0  9995", "line2": "2 44804  97.4572  55.0597 0013845  55.2266 305.0270 15.19222957336501"}}, "geometry": {"type": "Point", "coordinates": [53.52073895234296, 13.02537775450118]}}, {"type": "Feature", "properties": {"norad_id": 44819, "name": "GAOFEN-12 01", "group": "resource", "lat": -55.16023200308148, "lon": 13.20791038005753, "alt_km": 634.8144001751734, "timestamp": "2025-12-21T18:54:58.151110+00:00", "meta": {"OBJECT_NAME": "GAOFEN-12 01", "OBJECT_ID": "2019-082A", "EPOCH": "2025-12-21T14:18:10.139616", "MEAN_MOTION": 14.80666961, "ECCENTRICITY": 0.00019078, "INCLINATION": 97.8124, "RA_OF_ASC_NODE": 1.6445, "ARG_OF_PERICENTER": 190.8434, "MEAN_ANOMALY": 169.2738, "EPHEMERIS_TYPE": 0, "CLASSIFICATION_TYPE": "U", "NORAD_CAT_ID": 44819, "ELEMENT_SET_NO": 999, "REV_AT_EPOCH": 32781, "BSTAR": 5.7121231e-05, "MEAN_MOTION_DOT": 3.88e-06, "MEAN_MOTION_DDOT": 0}, "tle": {"line1": "1 44819U 19082A   25355.59595069  .00000388  00000+0  57121-4 0  9992", "line2": "2 44819  97.8124   1.6445 0001907 190.8434 169.2738 14.80666961327819"}}, "geometry": {"type": "Point", "coordinates": [13.20791038005753, -55.16023200308148]}}, {"type": "Feature", "properties": {"norad_id": 44873, "name": "CSG-1", "group": "resource", "lat": 74.2944849147478, "lon": 26.48501372370175, "alt_km": 614.4761275795472, "timestamp": "2025-12-21T18:54:58.151119+00:00", "meta": {"OBJECT_NAME": "CSG-1", "OBJECT_ID": "2019-092A", "EPOCH": "2025-12-21T15:12:36.039744", "MEAN_MOTION": 14.82151387, "ECCENTRICITY": 0.0001471, "INCLINATION": 97.8803, "RA_OF_ASC_NODE": 176.8238, "ARG_OF_PERICENTER": 85.6438, "MEAN_ANOMALY": 274.4943, "EPHEMERIS_TYPE": 0, "CLASSIFICATION_TYPE": "U", "NORAD_CAT_ID": 44873, "ELEMENT_SET_NO": 999, "REV_AT_EPOCH": 32517, "BSTAR": 6.5088776e-05, "MEAN_MOTION_DOT": 4.66e-06, "MEAN_MOTION_DDOT": 0}, "tle": {"line1": "1 44873U 19092A   25355.63375046  .00000466  00000+0  65089-4 0  9998", "line2": "2 44873  97.8803 176.8238 0001471  85.6438 274.4943 14.82151387325176"}}, "geometry": {"type": "Point", "coordinates": [26.48501372370175, 74.2944849147478]}}, {"type": "Feature", "properties": {"norad_id": 46277, "name": "NEMO-HD", "group": "resource", "lat": -3.0614040948666417, "lon": 55.15993544719086, "alt_km": 447.6291605925244, "timestamp": "2025-12-21T18:54:58.151129+00:00", "meta": {"OBJECT_NAME": "NEMO-HD", "OBJECT_ID": "2020-061F", "EPOCH": "2025-12-21T14:15:09.501408", "MEAN_MOTION": 15.40494905, "ECCENTRICITY": 0.00013202, "INCLINATION": 97.2198, "RA_OF_ASC_NODE": 54.5796, "ARG_OF_PERICENTER": 52.3263, "MEAN_ANOMALY": 307.8103, "EPHEMERIS_TYPE": 0, "CLASSIFICATION_TYPE": "U", "NORAD_CAT_ID": 46277, "ELEMENT_SET_NO": 999, "REV_AT_EPOCH": 29460, "BSTAR": 0.00020871096, "MEAN_MOTION_DOT": 8.381e-05, "MEAN_MOTION_DDOT": 0}, "tle": {"line1": "1 46277U 20061F   25355.59385997  .00008381  00000+0  20871-3 0  9990", "line2": "2 46277  97.2198  54.5796 0001320  52.3263 307.8103 15.40494905294601"}}, "geometry": {"type": "Point", "coordinates": [55.15993544719086, -3.0614040948666417]}}, {"type": "Feature", "properties": {"norad_id": 46984, "name": "SENTINEL-6A", "group": "resource", "lat": 52.71383995630085, "lon": 179.24501286479227, "alt_km": 1337.1100927128673, "timestamp": "2025-12-21T18:54:58.151139+00:00", "meta": {"OBJECT_NAME": "SENTINEL-6A", "OBJECT_ID": "2020-086A", "EPOCH": "2025-12-21T12:58:46.587936", "MEAN_MOTION": 12.8093087, "ECCENTRICITY": 0.00077181, "INCLINATION": 66.0395, "RA_OF_ASC_NODE": 144.0278, "ARG_OF_PERICENTER": 269.3518, "MEAN_ANOMALY": 90.6613, "EPHEMERIS_TYPE": 0, "CLASSIFICATION_TYPE": "U", "NORAD_CAT_ID": 46984, "ELEMENT_SET_NO": 999, "REV_AT_EPOCH": 23757, "BSTAR": -2.6960578e-05, "MEAN_MOTION_DOT": -6.7e-07, "MEAN_MOTION_DDOT": 0}, "tle": {"line1": "1 46984U 20086A   25355.54081699 -.00000067  00000+0 -26961-4 0  9991", "line2": "2 46984  66.0395 144.0278 0007718 269.3518  90.6613 12.80930870237572"}}, "geometry": {"type": "Point", "coordinates": [179.24501286479227, 52.71383995630085]}}, {"type": "Feature", "properties": {"norad_id": 48079, "name": "GAOFEN-12 02", "group": "resource", "lat": -43.47126988978733, "lon": -2.6013856610360957, "alt_km": 635.3509430980639, "timestamp": "2025-12-21T18:54:58.151149+00:00", "meta": {"OBJECT_NAME": "GAOFEN-12 02", "OBJECT_ID": "2021-026A", "EPOCH": "2025-12-21T14:14:56.384160", "MEAN_MOTION": 14.80684823, "ECCENTRICITY": 0.00036011, "INCLINATION": 97.9855, "RA_OF_ASC_NODE": 349.5575, "ARG_OF_PERICENTER": 83.3468, "MEAN_ANOMALY": 276.8154, "EPHEMERIS_TYPE": 0, "CLASSIFICATION_TYPE": "U", "NORAD_CAT_ID": 48079, "ELEMENT_SET_NO": 999, "REV_AT_EPOCH": 25548, "BSTAR": 5.6755135e-05, "MEAN_MOTION_DOT": 3.83e-06, "MEAN_MOTION_DDOT": 0}, "tle": {"line1": "1 48079U 21026A   25355.59370815  .00000383  00000+0  56755-4 0  9992", "line2": "2 48079  97.9855 349.5575 0003601  83.3468 276.8154 14.80684823255484"}}, "geometry": {"type": "Point", "coordinates": [-2.6013856610360957, -43.47126988978733]}}, {"type": "Feature", "properties": {"norad_id": 48268, "name": "PLEIADES NEO 3", "group": "resource", "lat": 54.45739251626863, "lon": 56.899717289568116, "alt_km": 618.0855750305545, "timestamp": "2025-12-21T18:54:58.151160+00:00", "meta": {"OBJECT_NAME": "PLEIADES NEO 3", "OBJECT_ID": "2021-034A", "EPOCH": "2025-12-21T13:48:19.617120", "MEAN_MOTION": 14.81675677, "ECCENTRICITY": 0.0001404, "INCLINATION": 97.895, "RA_OF_ASC_NODE": 67.89, "ARG_OF_PERICENTER": 90.4509, "MEAN_ANOMALY": 269.6865, "EPHEMERIS_TYPE": 0, "CLASSIFICATION_TYPE": "U", "NORAD_CAT_ID": 48268, "ELEMENT_SET_NO": 999, "REV_AT_EPOCH": 25135, "BSTAR": 0.00011372408, "MEAN_MOTION_DOT": 8.43e-06, "MEAN_MOTION_DDOT": 0}, "tle": {"line1": "1 48268U 21034A   25355.57522705  .00000843  00000+0  11372-3 0  9992", "line2": "2 48268  97.8950  67.8900 0001404  90.4509 269.6865 14.81675677251354"}}, "geometry": {"type": "Point", "coordinates": [56.899717289568116, 54.45739251626863]}}, {"type": "Feature", "properties": {"norad_id": 49070, "name": "PLEIADES NEO 4", "group": "resource", "lat": -54.657642798388686, "lon": -123.18887765461714, "alt_km": 631.8890074375413, "timestamp": "2025-12-21T18:54:58.151170+00:00", "meta": {"OBJECT_NAME": "PLEIADES NEO 4", "OBJECT_ID": "2021-073E", "EPOCH": "2025-12-20T17:32:43.601280", "MEAN_MOTION": 14.81672177, "ECCENTRICITY": 0.00013249, "INCLINATION": 97.8951, "RA_OF_ASC_NODE": 67.0538, "ARG_OF_PERICENTER": 89.6187, "MEAN_ANOMALY": 270.5178, "EPHEMERIS_TYPE": 0, "CLASSIFICATION_TYPE": "U", "NORAD_CAT_ID": 49070, "ELEMENT_SET_NO": 999, "REV_AT_EPOCH": 23494, "BSTAR": -3.6645539e-05, "MEAN_MOTION_DOT": -3.4e-06, "MEAN_MOTION_DDOT": 0}, "tle": {"line1": "1 49070U 21073E   25354.73106020 -.00000340  00000+0 -36646-4 0  9998", "line2": "2 49070  97.8951  67.0538 0001324  89.6187 270.5178 14.81672177234945"}}, "geometry": {"type": "Point", "coordinates": [-123.18887765461714, -54.657642798388686]}}, {"type": "Feature", "properties": {"norad_id": 49260, "name": "LANDSAT 9", "group": "resource", "lat": 6.755128386976087, "lon": -115.2527242399921, "alt_km": 704.4716249737967, "timestamp": "2025-12-21T18:54:58.151179+00:00", "meta": {"OBJECT_NAME": "LANDSAT 9", "OBJECT_ID": "2021-088A", "EPOCH": "2025-12-21T14:49:42.297024", "MEAN_MOTION": 14.57106446, "ECCENTRICITY": 0.0001114, "INCLINATION": 98.2083, "RA_OF_ASC_NODE": 63.5998, "ARG_OF_PERICENTER": 92.2065, "MEAN_ANOMALY": 267.9261, "EPHEMERIS_TYPE": 0, "CLASSIFICATION_TYPE": "U", "NORAD_CAT_ID": 49260, "ELEMENT_SET_NO": 999, "REV_AT_EPOCH": 22514, "BSTAR": 8.8517204e-05, "MEAN_MOTION_DOT": 3.54e-06, "MEAN_MOTION_DDOT": 0}, "tle": {"line1": "1 49260U 21088A   25355.61785066  .00000354  00000+0  88517-4 0  9993", "line2": "2 49260  98.2083  63.5998 0001114  92.2065 267.9261 14.57106446225149"}}, "geometry": {"type": "Point", "coordinates": [-115.2527242399921, 6.755128386976087]}}, {"type": "Feature", "properties": {"norad_id": 51444, "name": "CSG-2", "group": "resource", "lat": -74.3426339929123, "lon": -153.41361027879768, "alt_km": 630.8169730719064, "timestamp": "2025-12-21T18:54:58.151189+00:00", "meta": {"OBJECT_NAME": "CSG-2", "OBJECT_ID": "2022-008A", "EPOCH": "2025-12-21T14:23:59.377056", "MEAN_MOTION": 14.82151772, "ECCENTRICITY": 0.00014533, "INCLINATION": 97.8798, "RA_OF_ASC_NODE": 176.7891, "ARG_OF_PERICENTER": 84.3555, "MEAN_ANOMALY": 275.7824, "EPHEMERIS_TYPE": 0, "CLASSIFICATION_TYPE": "U", "NORAD_CAT_ID": 51444, "ELEMENT_SET_NO": 999, "REV_AT_EPOCH": 21028, "BSTAR": 6.4888241e-05, "MEAN_MOTION_DOT": 4.64e-06, "MEAN_MOTION_DDOT": 0}, "tle": {"line1": "1 51444U 22008A   25355.59999279  .00000464  00000+0  64888-4 0  9990", "line2": "2 51444  97.8798 176.7891 0001453  84.3555 275.7824 14.82151772210286"}}, "geometry": {"type": "Point", "coordinates": [-153.41361027879768, -74.3426339929123]}}]}